[{"OBJECT_NAME":"ONEWEB-0380","OBJECT_ID":"2021-090AD","EPOCH":"2026-02-22T16:50:32.555616","MEAN_MOTION":13.19725093,"ECCENTRICITY":0.00019087,"INCLINATION":87.9248,"RA_OF_ASC_NODE":327.7742,"ARG_OF_PERICENTER":72.5469,"MEAN_ANOMALY":287.5872,"EPHEMERIS_TYPE":0,"CLASSIFICATION_TYPE":"U","NORAD_CAT_ID":49306,"ELEMENT_SET_NO":999,"REV_AT_EPOCH":21132,"BSTAR":5.2868167e-5,"MEAN_MOTION_DOT":3.4e-7,"MEAN_MOTION_DDOT":0},{"OBJECT_NAME":"ONEWEB-0381","OBJECT_ID":"2021-090AE","EPOCH":"2026-02-23T03:27:51.093504","MEAN_MOTION":13.20772656,"ECCENTRICITY":0.00015931,"INCLINATION":87.9196,"RA_OF_ASC_NODE":297.2058,"ARG_OF_PERICENTER":71.8841,"MEAN_ANOMALY":288.2466,"EPHEMERIS_TYPE":0,"CLASSIFICATION_TYPE":"U","NORAD_CAT_ID":49307,"ELEMENT_SET_NO":999,"REV_AT_EPOCH":21477,"BSTAR":0.00021740127,"MEAN_MOTION_DOT":1.01e-6,"MEAN_MOTION_DDOT":0},{"OBJECT_NAME":"ONEWEB-0382","OBJECT_ID":"2021-090AF","EPOCH":"2026-02-23T03:09:40.360032","MEAN_MOTION":13.20772068,"ECCENTRICITY":0.00014694,"INCLINATION":87.9193,"RA_OF_ASC_NODE":297.2047,"ARG_OF_PERICENTER":70.0411,"MEAN_ANOMALY":290.0881,"EPHEMERIS_TYPE":0,"CLASSIFICATION_TYPE":"U","NORAD_CAT_ID":49308,"ELEMENT_SET_NO":999,"REV_AT_EPOCH":21476,"BSTAR":6.669038e-5,"MEAN_MOTION_DOT":4.0e-7,"MEAN_MOTION_DDOT":0},{"OBJECT_NAME":"ONEWEB-0383","OBJECT_ID":"2021-090AG","EPOCH":"2026-02-23T01:59:45.617568","MEAN_MOTION":13.14505646,"ECCENTRICITY":0.00014652,"INCLINATION":87.9012,"RA_OF_ASC_NODE":312.4527,"ARG_OF_PERICENTER":75.2067,"MEAN_ANOMALY":284.9225,"EPHEMERIS_TYPE":0,"CLASSIFICATION_TYPE":"U","NORAD_CAT_ID":49309,"ELEMENT_SET_NO":999,"REV_AT_EPOCH":21260,"BSTAR":0.00075691156,"MEAN_MOTION_DOT":2.93e-6,"MEAN_MOTION_DDOT":0},{"OBJECT_NAME":"ONEWEB-0384","OBJECT_ID":"2021-090AH","EPOCH":"2026-02-23T02:57:45.033696","MEAN_MOTION":13.20806381,"ECCENTRICITY":0.00012591,"INCLINATION":87.9201,"RA_OF_ASC_NODE":297.2489,"ARG_OF_PERICENTER":63.9568,"MEAN_ANOMALY":296.1695,"EPHEMERIS_TYPE":0,"CLASSIFICATION_TYPE":"U","NORAD_CAT_ID":49310,"ELEMENT_SET_NO":999,"REV_AT_EPOCH":21477,"BSTAR":0.00040076452,"MEAN_MOTION_DOT":1.76e-6,"MEAN_MOTION_DDOT":0},{"OBJECT_NAME":"ONEWEB-0385","OBJECT_ID":"2021-090AJ","EPOCH":"2026-02-23T02:58:19.049376","MEAN_MOTION":13.20770956,"ECCENTRICITY":0.00015443,"INCLINATION":87.9197,"RA_OF_ASC_NODE":297.2108,"ARG_OF_PERICENTER":74.3003,"MEAN_ANOMALY":285.83,"EPHEMERIS_TYPE":0,"CLASSIFICATION_TYPE":"U","NORAD_CAT_ID":49311,"ELEMENT_SET_NO":999,"REV_AT_EPOCH":21474,"BSTAR":0.00025858607,"MEAN_MOTION_DOT":1.18e-6,"MEAN_MOTION_DDOT":0},{"OBJECT_NAME":"ONEWEB-0386","OBJECT_ID":"2021-090AK","EPOCH":"2026-02-23T03:23:17.549376","MEAN_MOTION":13.20772694,"ECCENTRICITY":0.00014409,"INCLINATION":87.9196,"RA_OF_ASC_NODE":297.1918,"ARG_OF_PERICENTER":73.7886,"MEAN_ANOMALY":286.3406,"EPHEMERIS_TYPE":0,"CLASSIFICATION_TYPE":"U","NORAD_CAT_ID":49312,"ELEMENT_SET_NO":999,"REV_AT_EPOCH":21476,"BSTAR":8.7634017e-5,"MEAN_MOTION_DOT":4.9e-7,"MEAN_MOTION_DDOT":0},{"OBJECT_NAME":"ONEWEB-0387","OBJECT_ID":"2021-090AL","EPOCH":"2026-02-23T03:00:35.165664","MEAN_MOTION":13.2077215,"ECCENTRICITY":0.0001805,"INCLINATION":87.9183,"RA_OF_ASC_NODE":297.234,"ARG_OF_PERICENTER":73.2812,"MEAN_ANOMALY":286.8519,"EPHEMERIS_TYPE":0,"CLASSIFICATION_TYPE":"U","NORAD_CAT_ID":49313,"ELEMENT_SET_NO":999,"REV_AT_EPOCH":21476,"BSTAR":8.1583396e-5,"MEAN_MOTION_DOT":4.6e-7,"MEAN_MOTION_DDOT":0},{"OBJECT_NAME":"ONEWEB-0388","OBJECT_ID":"2021-090AM","EPOCH":"2026-02-23T05:27:57.178368","MEAN_MOTION":13.19725806,"ECCENTRICITY":0.00016842,"INCLINATION":87.9244,"RA_OF_ASC_NODE":327.6672,"ARG_OF_PERICENTER":73.8826,"MEAN_ANOMALY":286.2492,"EPHEMERIS_TYPE":0,"CLASSIFICATION_TYPE":"U","NORAD_CAT_ID":49314,"ELEMENT_SET_NO":999,"REV_AT_EPOCH":21138,"BSTAR":0.00012555941,"MEAN_MOTION_DOT":6.3e-7,"MEAN_MOTION_DDOT":0},{"OBJECT_NAME":"ONEWEB-0389","OBJECT_ID":"2021-132A","EPOCH":"2026-02-23T05:14:41.106912","MEAN_MOTION":13.17648421,"ECCENTRICITY":0.00019579,"INCLINATION":87.9121,"RA_OF_ASC_NODE":28.5039,"ARG_OF_PERICENTER":72.0848,"MEAN_ANOMALY":288.0497,"EPHEMERIS_TYPE":0,"CLASSIFICATION_TYPE":"U","NORAD_CAT_ID":50469,"ELEMENT_SET_NO":999,"REV_AT_EPOCH":20307,"BSTAR":0.00027789641,"MEAN_MOTION_DOT":1.21e-6,"MEAN_MOTION_DDOT":0},{"OBJECT_NAME":"ONEWEB-0390","OBJECT_ID":"2021-132B","EPOCH":"2026-02-23T05:17:06.206208","MEAN_MOTION":13.17650391,"ECCENTRICITY":0.00021363,"INCLINATION":87.912,"RA_OF_ASC_NODE":28.5038,"ARG_OF_PERICENTER":85.8961,"MEAN_ANOMALY":274.2415,"EPHEMERIS_TYPE":0,"CLASSIFICATION_TYPE":"U","NORAD_CAT_ID":50470,"ELEMENT_SET_NO":999,"REV_AT_EPOCH":20307,"BSTAR":0.00017111806,"MEAN_MOTION_DOT":7.9e-7,"MEAN_MOTION_DDOT":0},{"OBJECT_NAME":"ONEWEB-0391","OBJECT_ID":"2021-132C","EPOCH":"2026-02-23T05:19:33.233088","MEAN_MOTION":13.17648551,"ECCENTRICITY":0.00024492,"INCLINATION":87.9121,"RA_OF_ASC_NODE":28.5129,"ARG_OF_PERICENTER":66.5266,"MEAN_ANOMALY":293.6122,"EPHEMERIS_TYPE":0,"CLASSIFICATION_TYPE":"U","NORAD_CAT_ID":50471,"ELEMENT_SET_NO":999,"REV_AT_EPOCH":20307,"BSTAR":9.5801381e-5,"MEAN_MOTION_DOT":5.0e-7,"MEAN_MOTION_DDOT":0},{"OBJECT_NAME":"ONEWEB-0392","OBJECT_ID":"2021-132D","EPOCH":"2026-02-22T22:45:53.434368","MEAN_MOTION":13.17647316,"ECCENTRICITY":0.0002033,"INCLINATION":87.9132,"RA_OF_ASC_NODE":28.5258,"ARG_OF_PERICENTER":72.4374,"MEAN_ANOMALY":287.6979,"EPHEMERIS_TYPE":0,"CLASSIFICATION_TYPE":"U","NORAD_CAT_ID":50472,"ELEMENT_SET_NO":999,"REV_AT_EPOCH":20307,"BSTAR":-0.00018514,"MEAN_MOTION_DOT":-5.9e-7,"MEAN_MOTION_DDOT":0},{"OBJECT_NAME":"ONEWEB-0393","OBJECT_ID":"2021-132E","EPOCH":"2026-02-23T05:24:36.347616","MEAN_MOTION":13.17649917,"ECCENTRICITY":0.00019186,"INCLINATION":87.9131,"RA_OF_ASC_NODE":28.4944,"ARG_OF_PERICENTER":77.6384,"MEAN_ANOMALY":282.4962,"EPHEMERIS_TYPE":0,"CLASSIFICATION_TYPE":"U","NORAD_CAT_ID":50473,"ELEMENT_SET_NO":999,"REV_AT_EPOCH":20310,"BSTAR":0.00014787862,"MEAN_MOTION_DOT":7.0e-7,"MEAN_MOTION_DDOT":0},{"OBJECT_NAME":"ONEWEB-0394","OBJECT_ID":"2021-132F","EPOCH":"2026-02-23T06:47:40.160544","MEAN_MOTION":13.18685117,"ECCENTRICITY":0.00018171,"INCLINATION":87.9241,"RA_OF_ASC_NODE":358.0557,"ARG_OF_PERICENTER":73.993,"MEAN_ANOMALY":286.1402,"EPHEMERIS_TYPE":0,"CLASSIFICATION_TYPE":"U","NORAD_CAT_ID":50474,"ELEMENT_SET_NO":999,"REV_AT_EPOCH":20658,"BSTAR":0.00026359089,"MEAN_MOTION_DOT":1.17e-6,"MEAN_MOTION_DDOT":0},{"OBJECT_NAME":"ONEWEB-0395","OBJECT_ID":"2021-132G","EPOCH":"2026-02-23T06:08:35.920320","MEAN_MOTION":13.11418191,"ECCENTRICITY":0.00021017,"INCLINATION":87.8833,"RA_OF_ASC_NODE":43.732,"ARG_OF_PERICENTER":84.6836,"MEAN_ANOMALY":275.4532,"EPHEMERIS_TYPE":0,"CLASSIFICATION_TYPE":"U","NORAD_CAT_ID":50475,"ELEMENT_SET_NO":999,"REV_AT_EPOCH":20078,"BSTAR":0.0013349221,"MEAN_MOTION_DOT":4.86e-6,"MEAN_MOTION_DDOT":0},{"OBJECT_NAME":"ONEWEB-0396","OBJECT_ID":"2021-132H","EPOCH":"2026-02-23T02:59:38.575392","MEAN_MOTION":13.18685082,"ECCENTRICITY":0.00018367,"INCLINATION":87.9242,"RA_OF_ASC_NODE":358.0989,"ARG_OF_PERICENTER":75.6172,"MEAN_ANOMALY":284.5164,"EPHEMERIS_TYPE":0,"CLASSIFICATION_TYPE":"U","NORAD_CAT_ID":50476,"ELEMENT_SET_NO":999,"REV_AT_EPOCH":20660,"BSTAR":0.00011313718,"MEAN_MOTION_DOT":5.8e-7,"MEAN_MOTION_DDOT":0},{"OBJECT_NAME":"ONEWEB-0397","OBJECT_ID":"2021-132J","EPOCH":"2026-02-22T12:46:54.861024","MEAN_MOTION":13.18684729,"ECCENTRICITY":0.000169,"INCLINATION":87.9241,"RA_OF_ASC_NODE":358.2162,"ARG_OF_PERICENTER":74.2812,"MEAN_ANOMALY":285.8507,"EPHEMERIS_TYPE":0,"CLASSIFICATION_TYPE":"U","NORAD_CAT_ID":50477,"ELEMENT_SET_NO":999,"REV_AT_EPOCH":20650,"BSTAR":0.00019876,"MEAN_MOTION_DOT":9.1e-7,"MEAN_MOTION_DDOT":0},{"OBJECT_NAME":"ONEWEB-0398","OBJECT_ID":"2021-132K","EPOCH":"2026-02-22T23:52:35.076288","MEAN_MOTION":13.11415966,"ECCENTRICITY":0.0002224,"INCLINATION":87.8843,"RA_OF_ASC_NODE":43.763,"ARG_OF_PERICENTER":88.5349,"MEAN_ANOMALY":271.6034,"EPHEMERIS_TYPE":0,"CLASSIFICATION_TYPE":"U","NORAD_CAT_ID":50478,"ELEMENT_SET_NO":999,"REV_AT_EPOCH":20064,"BSTAR":-0.0021727015,"MEAN_MOTION_DOT":-7.57e-6,"MEAN_MOTION_DDOT":0},{"OBJECT_NAME":"ONEWEB-0399","OBJECT_ID":"2021-132L","EPOCH":"2026-02-23T05:02:39.637536","MEAN_MOTION":13.11413892,"ECCENTRICITY":0.0001779,"INCLINATION":87.8838,"RA_OF_ASC_NODE":43.7305,"ARG_OF_PERICENTER":70.0172,"MEAN_ANOMALY":290.1148,"EPHEMERIS_TYPE":0,"CLASSIFICATION_TYPE":"U","NORAD_CAT_ID":50479,"ELEMENT_SET_NO":999,"REV_AT_EPOCH":20066,"BSTAR":-0.00035323313,"MEAN_MOTION_DOT":-1.12e-6,"MEAN_MOTION_DDOT":0},{"OBJECT_NAME":"ONEWEB-0400","OBJECT_ID":"2021-132M","EPOCH":"2026-02-23T06:28:40.229184","MEAN_MOTION":13.18685586,"ECCENTRICITY":0.00020258,"INCLINATION":87.9242,"RA_OF_ASC_NODE":358.0598,"ARG_OF_PERICENTER":82.4866,"MEAN_ANOMALY":277.6497,"EPHEMERIS_TYPE":0,"CLASSIFICATION_TYPE":"U","NORAD_CAT_ID":50480,"ELEMENT_SET_NO":999,"REV_AT_EPOCH":20659,"BSTAR":0.00038328209,"MEAN_MOTION_DOT":1.64e-6,"MEAN_MOTION_DDOT":0},{"OBJECT_NAME":"ONEWEB-0401","OBJECT_ID":"2021-132N","EPOCH":"2026-02-23T05:43:31.730016","MEAN_MOTION":13.18686227,"ECCENTRICITY":0.00016526,"INCLINATION":87.9241,"RA_OF_ASC_NODE":358.0618,"ARG_OF_PERICENTER":80.2922,"MEAN_ANOMALY":279.8396,"EPHEMERIS_TYPE":0,"CLASSIFICATION_TYPE":"U","NORAD_CAT_ID":50481,"ELEMENT_SET_NO":999,"REV_AT_EPOCH":20659,"BSTAR":0.00012728488,"MEAN_MOTION_DOT":6.3e-7,"MEAN_MOTION_DDOT":0},{"OBJECT_NAME":"ONEWEB-0402","OBJECT_ID":"2021-132P","EPOCH":"2026-02-23T06:40:32.380320","MEAN_MOTION":13.1868545,"ECCENTRICITY":0.00013146,"INCLINATION":87.9241,"RA_OF_ASC_NODE":358.046,"ARG_OF_PERICENTER":83.137,"MEAN_ANOMALY":276.9912,"EPHEMERIS_TYPE":0,"CLASSIFICATION_TYPE":"U","NORAD_CAT_ID":50482,"ELEMENT_SET_NO":999,"REV_AT_EPOCH":20662,"BSTAR":0.00022704789,"MEAN_MOTION_DOT":1.02e-6,"MEAN_MOTION_DDOT":0}]
